NORAD_CAT_ID,OBJECT_NAME,OBJECT_TYPE,EPOCH,MEAN_MOTION,ECCENTRICITY,INCLINATION,RA_OF_ASC_NODE,ARG_OF_PERICENTER,MEAN_ANOMALY,BSTAR,MEAN_MOTION_DOT,MEAN_MOTION_DDOT,TLE_LINE0,TLE_LINE1,TLE_LINE2,SEMIMAJOR_AXIS,PERIOD,APOGEE,PERIGEE,DECAYED
54804.0,STARLINK-5422,PAYLOAD,2023-12-03 11:43:22,15.08817907,0.0001235,53.2161,142.3277,104.0884,256.0246,0.00011817,1.592e-05,0.0,0 STARLINK-5422,1 54804U 22175AY  23337.48845644  .00001592  00000-0  11817-3 0  9997,2 54804  53.2161 142.3277 0001235 104.0884 256.0246 15.08817907 55251,6917.948,95.439,540.667,538.959,0.0
54804.0,STARLINK-5422,PAYLOAD,2023-12-03 18:04:55,15.08822592,0.0001223,53.2161,141.1379,102.7657,257.3472,0.00020815,3.025e-05,0.0,0 STARLINK-5422,1 54804U 22175AY  23337.75341888  .00003025  00000-0  20815-3 0  9999,2 54804  53.2161 141.1379 0001223 102.7657 257.3472 15.08822592 53137,6917.934,95.439,540.645,538.953,0.0
54804.0,STARLINK-5422,PAYLOAD,2023-12-04 09:58:46,15.08837084,0.0001144,53.2166,138.1666,94.6027,265.5096,0.00045939,7.03e-05,0.0,0 STARLINK-5422,1 54804U 22175AY  23338.41582108  .00007030  00000-0  45939-3 0  9999,2 54804  53.2166 138.1666 0001144  94.6027 265.5096 15.08837084 55394,6917.889,95.438,540.546,538.963,0.0
54804.0,STARLINK-5422,PAYLOAD,2023-12-04 21:06:28,15.08849472,0.0001154,53.2164,136.0854,93.7412,266.3712,0.00053106,8.176e-05,0.0,0 STARLINK-5422,1 54804U 22175AY  23338.87949640  .00008176  00000-0  53106-3 0  9994,2 54804  53.2164 136.0854 0001154  93.7412 266.3712 15.08849472 55463,6917.851,95.437,540.515,538.918,0.0
54804.0,STARLINK-5422,PAYLOAD,2023-12-05 19:21:50,15.08870408,0.0001077,53.2164,131.9229,86.9802,273.1314,0.0004884,7.5e-05,0.0,0 STARLINK-5422,1 54804U 22175AY  23339.80683940  .00007500  00000-0  48840-3 0  9995,2 54804  53.2164 131.9229 0001077  86.9802 273.1314 15.08870408 55607,6917.787,95.436,540.397,538.907,0.0
54804.0,STARLINK-5422,PAYLOAD,2023-12-06 19:12:38,15.08837813,0.0001817,53.2158,127.4608,76.1521,283.9673,0.00015216,2.134e-05,0.0,0 STARLINK-5422,1 54804U 22175AY  23340.80044478  .00002134  00000-0  15216-3 0  9993,2 54804  53.2158 127.4608 0001817  76.1521 283.9673 15.08837813 53598,6917.887,95.438,541.009,538.495,0.0
54804.0,STARLINK-5422,PAYLOAD,2023-12-07 09:31:06,15.08836515,0.0001294,53.2154,124.7858,86.5884,273.5256,0.00018141,2.6e-05,0.0,0 STARLINK-5422,1 54804U 22175AY  23341.39660543  .00002600  00000-0  18141-3 0  9993,2 54804  53.2154 124.7858 0001294  86.5884 273.5256 15.08836515 55847,6917.891,95.438,540.651,538.861,0.0
54804.0,STARLINK-5422,PAYLOAD,2023-12-08 09:21:53,15.08842551,0.0002099,53.2154,120.325,81.5028,278.6202,0.00019246,2.776e-05,0.0,0 STARLINK-5422,1 54804U 22175AY  23342.39020656  .00002776  00000-0  19246-3 0  9990,2 54804  53.2154 120.3250 0002099  81.5028 278.6202 15.08842551 53835,6917.873,95.437,541.19,538.286,0.0
54804.0,STARLINK-5422,PAYLOAD,2023-12-08 10:57:16,15.08841187,0.00016,53.2138,120.0263,92.2885,267.829,0.000142,1.973e-05,0.0,0 STARLINK-5422,1 54804U 22175AY  23342.45644535  .00001973  00000-0  14200-3 0  9998,2 54804  53.2138 120.0263 0001600  92.2885 267.8290 15.08841187 56008,6917.877,95.437,540.849,538.635,0.0
54804.0,STARLINK-5422,PAYLOAD,2023-12-09 12:23:26,15.08845036,0.0001641,53.2142,115.2672,110.1155,250.0014,0.00013665,1.888e-05,0.0,0 STARLINK-5422,1 54804U 22175AY  23343.51628181  .00001888  00000-0  13665-3 0  9994,2 54804  53.2142 115.2672 0001641 110.1155 250.0014 15.08845036 56160,6917.865,95.437,540.865,538.595,0.0
54804.0,STARLINK-5422,PAYLOAD,2023-12-10 12:14:14,15.08838274,0.0001181,53.2165,110.8116,77.3914,282.721,5.0223e-05,5.12e-06,0.0,0 STARLINK-5422,1 54804U 22175AY  23344.50988707  .00000512  00000-0  50223-4 0  9992,2 54804  53.2165 110.8116 0001181  77.3914 282.7210 15.08838274 54158,6917.886,95.438,540.568,538.934,0.0
54804.0,STARLINK-5422,PAYLOAD,2023-12-10 13:49:37,15.08838252,0.0001235,53.2161,110.5133,85.5847,274.5286,4.538e-05,4.34e-06,0.0,0 STARLINK-5422,1 54804U 22175AY  23344.57612667  .00000434  00000-0  45380-4 0  9999,2 54804  53.2161 110.5133 0001235  85.5847 274.5286 15.08838252 56325,6917.886,95.438,540.605,538.896,0.0
54804.0,STARLINK-5422,PAYLOAD,2023-12-10 15:25:00,15.08838595,0.0001213,53.2171,110.2162,88.1084,272.0047,6.119e-05,6.86e-06,0.0,0 STARLINK-5422,1 54804U 22175AY  23344.64236764  .00000686  00000-0  61190-4 0  9993,2 54804  53.2171 110.2162 0001213  88.1084 272.0047 15.08838595 56332,6917.885,95.438,540.589,538.911,0.0
54804.0,STARLINK-5422,PAYLOAD,2023-12-11 13:40:24,15.08838154,0.0001287,53.2176,106.0555,91.3982,268.7158,9.7118e-05,1.258e-05,0.0,0 STARLINK-5422,1 54804U 22175AY  23345.56972861  .00001258  00000-0  97118-4 0  9995,2 54804  53.2176 106.0555 0001287  91.3982 268.7158 15.08838154 56471,6917.886,95.438,540.641,538.861,0.0
54804.0,STARLINK-5422,PAYLOAD,2023-12-11 15:15:47,15.08839786,0.0001351,53.2179,105.7581,98.4564,261.6582,0.00010663,1.41e-05,0.0,0 STARLINK-5422,1 54804U 22175AY  23345.63596717  .00001410  00000-0  10663-3 0  9994,2 54804  53.2179 105.7581 0001351  98.4564 261.6582 15.08839786 54322,6917.881,95.438,540.681,538.811,0.0
54804.0,STARLINK-5422,PAYLOAD,2023-12-12 11:55:48,15.08835977,0.0001368,53.218,101.8903,98.137,261.9777,9.4752e-05,1.22e-05,0.0,0 STARLINK-5422,1 54804U 22175AY  23346.49709194  .00001220  00000-0  94752-4 0  9995,2 54804  53.2180 101.8903 0001368  98.1370 261.9777 15.08835977 54450,6917.893,95.438,540.704,538.811,0.0
54804.0,STARLINK-5422,PAYLOAD,2023-12-12 13:31:11,15.08837112,0.0001359,53.2179,101.5921,96.6147,263.5,0.00010255,1.344e-05,0.0,0 STARLINK-5422,1 54804U 22175AY  23346.56333105  .00001344  00000-0  10255-3 0  9990,2 54804  53.2179 101.5921 0001359  96.6147 263.5000 15.08837112 56621,6917.889,95.438,540.694,538.814,0.0
54804.0,STARLINK-5422,PAYLOAD,2023-12-13 13:21:58,15.08843005,0.000144,53.2182,97.1321,102.4707,257.6446,0.00010906,1.448e-05,0.0,0 STARLINK-5422,1 54804U 22175AY  23347.55692791  .00001448  00000-0  10906-3 0  9997,2 54804  53.2182  97.1321 0001440 102.4707 257.6446 15.08843005 56770,6917.871,95.437,540.732,538.74,0.0
54804.0,STARLINK-5422,PAYLOAD,2023-12-13 14:57:21,15.08845451,0.0001359,53.2179,96.8321,81.7419,278.3728,0.00011935,1.612e-05,0.0,0 STARLINK-5422,1 54804U 22175AY  23347.62316670  .00001612  00000-0  11935-3 0  9990,2 54804  53.2179  96.8321 0001359  81.7419 278.3728 15.08845451 54622,6917.864,95.437,540.669,538.789,0.0
54804.0,STARLINK-5422,PAYLOAD,2023-12-14 11:37:22,15.08842908,0.0001388,53.2178,92.9671,70.1582,289.9559,9.1336e-05,1.166e-05,0.0,0 STARLINK-5422,1 54804U 22175AY  23348.48428947  .00001166  00000-0  91336-4 0  9994,2 54804  53.2178  92.9671 0001388  70.1582 289.9559 15.08842908 54759,6917.872,95.437,540.697,538.776,0.0
54804.0,STARLINK-5422,PAYLOAD,2023-12-14 13:12:46,15.08832219,0.0001852,53.2179,92.6711,56.1955,303.9213,0.00040782,6.207e-05,0.0,0 STARLINK-5422,1 54804U 22175AY  23348.55053471  .00006207  00000-0  40782-3 0  9997,2 54804  53.2179  92.6711 0001852  56.1955 303.9213 15.08832219 56925,6917.904,95.438,541.05,538.488,0.0
54804.0,STARLINK-5422,PAYLOAD,2023-12-14 14:48:09,15.08817788,0.0001882,53.219,92.3748,61.4539,298.6642,0.00056857,8.767e-05,0.0,0 STARLINK-5422,1 54804U 22175AY  23348.61677565  .00008767  00000-0  56857-3 0  9993,2 54804  53.2190  92.3748 0001882  61.4539 298.6642 15.08817788 54776,6917.948,95.439,541.115,538.511,0.0
54804.0,STARLINK-5422,PAYLOAD,2023-12-15 13:03:33,15.08835391,0.0002169,53.2188,88.2094,55.9556,304.1642,1.4595e-05,-5.6e-07,0.0,0 STARLINK-5422,1 54804U 22175AY  23349.54413736 -.00000056  00000-0  14595-4 0  9992,2 54804  53.2188  88.2094 0002169  55.9556 304.1642 15.08835391 57076,6917.894,95.438,541.26,538.259,0.0
54804.0,STARLINK-5422,PAYLOAD,2023-12-16 11:18:56,15.08847015,0.0001605,53.218,84.0465,75.7197,284.3973,0.00013646,1.885e-05,0.0,0 STARLINK-5422,1 54804U 22175AY  23350.47149150  .00001885  00000-0  13646-3 0  9997,2 54804  53.2180  84.0465 0001605  75.7197 284.3973 15.08847015 55057,6917.859,95.437,540.834,538.614,0.0
54804.0,STARLINK-5422,PAYLOAD,2023-12-16 12:54:19,15.08849761,0.0001713,53.2176,83.7481,70.5296,289.5881,0.00019466,2.812e-05,0.0,0 STARLINK-5422,1 54804U 22175AY  23350.53773062  .00002812  00000-0  19466-3 0  9996,2 54804  53.2176  83.7481 0001713  70.5296 289.5881 15.08849761 57225,6917.851,95.437,540.901,538.531,0.0
54804.0,STARLINK-5422,PAYLOAD,2023-12-17 11:09:44,15.0884042,0.0001835,53.2179,79.5854,114.2509,245.8675,0.00011996,1.622e-05,0.0,0 STARLINK-5422,1 54804U 22175AY  23351.46509504  .00001622  00000-0  11996-3 0  9995,2 54804  53.2179  79.5854 0001835 114.2509 245.8675 15.08840420 55208,6917.879,95.438,541.014,538.475,0.0
54804.0,STARLINK-5422,PAYLOAD,2023-12-18 11:00:30,15.08854014,0.0001678,53.2176,75.1246,104.1006,256.0172,0.0002398,3.532e-05,0.0,0 STARLINK-5422,1 54804U 22175AY  23352.45868772  .00003532  00000-0  23980-3 0  9998,2 54804  53.2176  75.1246 0001678 104.1006 256.0172 15.08854014 55353,6917.838,95.437,540.863,538.542,0.0
54804.0,STARLINK-5422,PAYLOAD,2023-12-18 12:35:53,15.08858504,0.0001714,53.2179,74.8273,105.0162,255.102,0.00033902,5.114e-05,0.0,0 STARLINK-5422,1 54804U 22175AY  23352.52492592  .00005114  00000-0  33902-3 0  9992,2 54804  53.2179  74.8273 0001714 105.0162 255.1020 15.08858504 57527,6917.824,95.436,540.875,538.503,0.0
54804.0,STARLINK-5422,PAYLOAD,2023-12-19 10:51:17,15.08845933,0.0001563,53.2174,70.6633,104.0918,256.0248,0.00011608,1.56e-05,0.0,0 STARLINK-5422,1 54804U 22175AY  23353.45228896  .00001560  00000-0  11608-3 0  9999,2 54804  53.2174  70.6633 0001563 104.0918 256.0248 15.08845933 55506,6917.862,95.437,540.809,538.646,0.0
54804.0,STARLINK-5422,PAYLOAD,2023-12-19 12:26:40,15.08846526,0.0001574,53.2176,70.3656,105.3768,254.7398,0.00014194,1.972e-05,0.0,0 STARLINK-5422,1 54804U 22175AY  23353.51852859  .00001972  00000-0  14194-3 0  9998,2 54804  53.2176  70.3656 0001574 105.3768 254.7398 15.08846526 57679,6917.86,95.437,540.814,538.637,0.0
